NORAD_CAT_ID,OBJECT_NAME,OBJECT_TYPE,EPOCH,MEAN_MOTION,ECCENTRICITY,INCLINATION,RA_OF_ASC_NODE,ARG_OF_PERICENTER,MEAN_ANOMALY,BSTAR,MEAN_MOTION_DOT,MEAN_MOTION_DDOT,TLE_LINE0,TLE_LINE1,TLE_LINE2,SEMIMAJOR_AXIS,PERIOD,APOGEE,PERIGEE,DECAYED
53178.0,STARLINK-4280,PAYLOAD,2022-11-10 10:37:20,15.08814932,0.0002312,53.2158,219.5701,28.2582,331.8535,-0.0001822,-3.185e-05,0.0,0 STARLINK-4280,1 53178U 22083AY  22314.44260084 -.00003185  00000-0 -18220-3 0  9994,2 53178  53.2158 219.5701 0002312  28.2582 331.8535 15.08814932 17883,6917.956999999999,95.439,541.4209999999998,538.2230000000002,0.0
53178.0,STARLINK-4280,PAYLOAD,2022-11-10 16:58:53,15.08824976,0.0002537,53.2159,218.3797,28.156,331.9569,-0.00025539,-4.349e-05,0.0,0 STARLINK-4280,1 53178U 22083AY  22314.70755856 -.00004349  00000-0 -25539-3 0  9993,2 53178  53.2159 218.3797 0002537  28.1560 331.9569 15.08824976 18552,6917.926,95.439,541.5459999999998,538.036,0.0
53178.0,STARLINK-4280,PAYLOAD,2022-11-11 00:55:48,15.08834682,0.000243,53.2156,216.8938,29.8264,330.2866,-0.00020424,-3.537e-05,0.0,0 STARLINK-4280,1 53178U 22083AY  22315.03875302 -.00003537  00000-0 -20424-3 0  9995,2 53178  53.2156 216.8938 0002430  29.8264 330.2866 15.08834682 18603,6917.897,95.438,541.443,538.081,0.0
53178.0,STARLINK-4280,PAYLOAD,2022-11-11 04:06:34,15.08836814,0.0002439,53.2157,216.2986,30.5481,329.5653,-0.00017067,-3.003e-05,0.0,0 STARLINK-4280,1 53178U 22083AY  22315.17123122 -.00003003  00000-0 -17067-3 0  9993,2 53178  53.2157 216.2986 0002439  30.5481 329.5653 15.08836814 17995,6917.89,95.438,541.442,538.068,0.0
53178.0,STARLINK-4280,PAYLOAD,2022-11-11 21:35:48,15.08825043,0.0002479,53.2157,213.0279,28.1564,331.9562,0.0003779,5.729e-05,0.0,0 STARLINK-4280,1 53178U 22083AY  22315.89986981  .00005729  00000-0  37790-3 0  9992,2 53178  53.2157 213.0279 0002479  28.1564 331.9562 15.08825043 18106,6917.926,95.439,541.506,538.076,0.0
53178.0,STARLINK-4280,PAYLOAD,2022-11-12 02:21:58,15.08844379,0.0002475,53.2147,212.1358,30.125,329.9884,0.00065801,0.00010201,0.0,0 STARLINK-4280,1 53178U 22083AY  22316.09859187  .00010201  00000-0  65801-3 0  9997,2 53178  53.2147 212.1358 0002475  30.1250 329.9884 15.08844379 18763,6917.8669999999975,95.437,541.444,538.02,0.0
53178.0,STARLINK-4280,PAYLOAD,2022-11-12 10:18:54,15.08847112,0.0002594,53.2144,210.6491,30.0983,330.0157,0.00058599,9.052e-05,0.0,0 STARLINK-4280,1 53178U 22083AY  22316.42979288  .00009052  00000-0  58599-3 0  9997,2 53178  53.2144 210.6491 0002594  30.0983 330.0157 15.08847112 18185,6917.859,95.437,541.518,537.929,0.0
53178.0,STARLINK-4280,PAYLOAD,2022-11-12 21:26:35,15.08863498,0.0002634999999999,53.2128,208.5674,31.6567,328.4583,0.00052806,8.131e-05,0.0,0 STARLINK-4280,1 53178U 22083AY  22316.89346271  .00008131  00000-0  52806-3 0  9990,2 53178  53.2128 208.5674 0002635  31.6567 328.4583 15.08863498 18254,6917.809,95.436,541.496,537.851,0.0
53178.0,STARLINK-4280,PAYLOAD,2022-11-13 10:09:40,15.08840842,0.0002626,53.2134,206.1888,33.663000000000004,326.4529,-0.0003314,-5.559e-05,0.0,0 STARLINK-4280,1 53178U 22083AY  22317.42338454 -.00005559  00000-0 -33140-3 0  9997,2 53178  53.2134 206.1888 0002626  33.6630 326.4529 15.08840842 18969,6917.878000000002,95.438,541.559,537.9259999999998,0.0
53178.0,STARLINK-4280,PAYLOAD,2022-11-14 03:38:55,15.08838477,0.0002518,53.215,202.9166,31.6968,328.4175,-5.034e-05,-1.09e-05,0.0,0 STARLINK-4280,1 53178U 22083AY  22318.15202745 -.00001090  00000-0 -50340-4 0  9999,2 53178  53.2150 202.9166 0002518  31.6968 328.4175 15.08838477 18445,6917.885,95.438,541.492,538.008,0.0
53178.0,STARLINK-4280,PAYLOAD,2022-11-14 16:22:00,15.08845666,0.0002508,53.2155,200.5372,30.9613,329.1526,0.00028055,4.18e-05,0.0,0 STARLINK-4280,1 53178U 22083AY  22318.68194661  .00004180  00000-0  28055-3 0  9992,2 53178  53.2155 200.5372 0002508  30.9613 329.1526 15.08845666 19156,6917.863,95.437,541.4630000000002,537.993,0.0
53178.0,STARLINK-4280,PAYLOAD,2022-11-14 22:43:32,15.08836548,0.0002511,53.2155,199.3488,35.7716,324.3444,2.0591e-05,3.9e-07,0.0,0 STARLINK-4280,1 53178U 22083AY  22318.94690826  .00000039  00000-0  20591-4 0  9992,2 53178  53.2155 199.3488 0002511  35.7716 324.3444 15.08836548 19199,6917.891,95.438,541.493,538.019,0.0
53178.0,STARLINK-4280,PAYLOAD,2022-11-15 20:58:57,15.08841299,0.0002627,53.2159,195.1861,31.1978,328.9169,0.00019162,2.763e-05,0.0,0 STARLINK-4280,1 53178U 22083AY  22319.87427127  .00002763  00000-0  19162-3 0  9994,2 53178  53.2159 195.1861 0002627  31.1978 328.9169 15.08841299 18709,6917.876,95.437,541.559,537.924,0.0
53178.0,STARLINK-4280,PAYLOAD,2022-11-16 01:45:06,15.08837769,0.0002608,53.216,194.294,30.5831,329.5313,8.4911e-05,1.063e-05,0.0,0 STARLINK-4280,1 53178U 22083AY  22320.07299247  .00001063  00000-0  84911-4 0  9995,2 53178  53.2160 194.2940 0002608  30.5831 329.5313 15.08837769 19367,6917.887,95.438,541.556,537.948,0.0
53178.0,STARLINK-4280,PAYLOAD,2022-11-16 03:20:29,15.08838325,0.0002614,53.216,193.9966,30.9018,329.2128,9.6827e-05,1.253e-05,0.0,0 STARLINK-4280,1 53178U 22083AY  22320.13923259  .00001253  00000-0  96827-4 0  9999,2 53178  53.2160 193.9966 0002614  30.9018 329.2128 15.08838325 18740,6917.886,95.438,541.559,537.942,0.0
53178.0,STARLINK-4280,PAYLOAD,2022-11-16 19:14:20,15.088466699999998,0.0002711,53.2161,191.0235,32.594,327.5219,0.00024458,3.607e-05,0.0,0 STARLINK-4280,1 53178U 22083AY  22320.80163008  .00003607  00000-0  24458-3 0  9996,2 53178  53.2161 191.0235 0002711  32.5940 327.5219 15.08846670 18844,6917.86,95.437,541.6,537.85,0.0
53178.0,STARLINK-4280,PAYLOAD,2022-11-17 03:11:16,15.08847025,0.0002618,53.2163,189.5368,32.261,327.8542,0.00020571,2.988e-05,0.0,0 STARLINK-4280,1 53178U 22083AY  22321.13282839  .00002988  00000-0  20571-3 0  9990,2 53178  53.2163 189.5368 0002618  32.2610 327.8542 15.08847025 19525,6917.859,95.437,541.535,537.913,0.0
53178.0,STARLINK-4280,PAYLOAD,2022-11-17 17:29:44,15.08839015,0.0002608,53.2161,186.86,32.7025,327.4128,0.00012406,1.687e-05,0.0,0 STARLINK-4280,1 53178U 22083AY  22321.72899303  .00001687  00000-0  12406-3 0  9998,2 53178  53.2161 186.8600 0002608  32.7025 327.4128 15.08839015 19612,6917.8830000000025,95.438,541.553,537.944,0.0
53178.0,STARLINK-4280,PAYLOAD,2022-11-17 19:05:08,15.08839441,0.0002672,53.2159,186.5631,32.1674,327.9481,0.00011082,1.476e-05,0.0,0 STARLINK-4280,1 53178U 22083AY  22321.79523248  .00001476  00000-0  11082-3 0  9992,2 53178  53.2159 186.5631 0002672  32.1674 327.9481 15.08839441 18995,6917.882,95.438,541.596,537.899,0.0
53178.0,STARLINK-4280,PAYLOAD,2022-11-17 23:51:17,15.08842683,0.0002691,53.2161,185.671,32.6898,327.426,0.00013415,1.847e-05,0.0,0 STARLINK-4280,1 53178U 22083AY  22321.99395110  .00001847  00000-0  13415-3 0  9993,2 53178  53.2161 185.6710 0002691  32.6898 327.4260 15.08842683 19027,6917.871999999999,95.437,541.599,537.876,0.0
53178.0,STARLINK-4280,PAYLOAD,2022-11-18 17:20:31,15.08846167,0.0002638,53.2159,182.3999,34.7904,325.326,0.00017974,2.574e-05,0.0,0 STARLINK-4280,1 53178U 22083AY  22322.72258929  .00002574  00000-0  17974-3 0  9993,2 53178  53.2159 182.3999 0002638  34.7904 325.3260 15.08846167 19139,6917.861999999999,95.437,541.5509999999998,537.9019999999998,0.0
53178.0,STARLINK-4280,PAYLOAD,2022-11-19 01:17:27,15.08836151,0.0002655,53.216,180.913,34.2764,325.8399,-3.6269e-05,-8.66e-06,0.0,0 STARLINK-4280,1 53178U 22083AY  22323.05379325 -.00000866  00000-0 -36269-4 0  9997,2 53178  53.2160 180.9130 0002655  34.2764 325.8399 15.08836151 19815,6917.892,95.438,541.594,537.92,0.0
53178.0,STARLINK-4280,PAYLOAD,2022-11-19 18:46:42,15.0884201,0.0002674,53.216,177.6416,34.7853,325.3313,9.9471e-05,1.295e-05,0.0,0 STARLINK-4280,1 53178U 22083AY  22323.78243283  .00001295  00000-0  99471-4 0  9999,2 53178  53.2160 177.6416 0002674  34.7853 325.3313 15.08842010 19294,6917.874,95.437,541.589,537.889,0.0
53178.0,STARLINK-4280,PAYLOAD,2022-11-20 07:29:47,15.08847411,0.0002684,53.216,175.2628,35.8213,324.2959,0.00016755,2.380000000000001e-05,0.0,0 STARLINK-4280,1 53178U 22083AY  22324.31235043  .00002380  00000-0  16755-3 0  9993,2 53178  53.2160 175.2628 0002684  35.8213 324.2959 15.08847411 20001,6917.858,95.437,541.5790000000002,537.866,0.0
53178.0,STARLINK-4280,PAYLOAD,2022-11-20 17:02:06,15.08836298,0.0002697,53.2159,173.4788,36.6528,323.4649,0.00012849,1.757e-05,0.0,0 STARLINK-4280,1 53178U 22083AY  22324.70979638  .00001757  00000-0  12849-3 0  9998,2 53178  53.2159 173.4788 0002697  36.6528 323.4649 15.08836298 20062,6917.892,95.438,541.622,537.891,0.0
53178.0,STARLINK-4280,PAYLOAD,2022-11-20 20:12:52,15.08833128,0.0002675,53.216,172.884,36.423,323.6944,6.3285e-05,7.19e-06,0.0,0 STARLINK-4280,1 53178U 22083AY  22324.84227796  .00000719  00000-0  63285-4 0  9992,2 53178  53.2160 172.8840 0002675  36.4230 323.6944 15.08833128 19450,6917.901,95.438,541.617,537.9159999999998,0.0
53178.0,STARLINK-4280,PAYLOAD,2022-11-21 13:42:07,15.08837959,0.0002699,53.2158,169.6131,37.2506,322.8673,9.1985e-05,1.176e-05,0.0,0 STARLINK-4280,1 53178U 22083AY  22325.57091866  .00001176  00000-0  91985-4 0  9996,2 53178  53.2158 169.6131 0002699  37.2506 322.8673 15.08837959 19563,6917.887,95.438,541.619,537.884,0.0
53178.0,STARLINK-4280,PAYLOAD,2022-11-21 20:03:39,15.08840692,0.0002734,53.2158,168.4236,37.9142,322.2043,0.00011514,1.545e-05,0.0,0 STARLINK-4280,1 53178U 22083AY  22325.83587774  .00001545  00000-0  11514-3 0  9992,2 53178  53.2158 168.4236 0002734  37.9142 322.2043 15.08840692 19607,6917.878000000002,95.438,541.635,537.852,0.0
53178.0,STARLINK-4280,PAYLOAD,2022-11-22 00:49:49,15.08844395,0.0002697,53.2167,167.5312,38.3314,321.7869,7.4281e-05,8.94e-06,0.0,0 STARLINK-4280,1 53178U 22083AY  22326.03459546  .00000894  00000-0  74281-4 0  9997,2 53178  53.2167 167.5312 0002697  38.3314 321.7869 15.08844395 20264,6917.8669999999975,95.437,541.5980000000002,537.866,0.0
